0 SAUDICOMSAT 5
1 31124U 07012H   13282.58976234  .00000350  00000-0  77791-4 0  9691
2 31124 097.8122 296.5052 0051836 329.7477 146.5858 14.61929763345707
0 SAUDICOMSAT 5
1 31124U 07012H   13283.89070880  .00000395  00000-0  86547-4 0  9708
2 31124 097.8119 297.7354 0051770 325.5533 153.4799 14.61931314345891
0 SAUDICOMSAT 5
1 31124U 07012H   13286.49681851  .00000384  00000-0  84404-4 0  9723
2 31124 097.8115 300.1996 0051662 317.1048 189.5251 14.61933213346272
0 SAUDICOMSAT 5
1 31124U 07012H   13287.58648137  .00000527  00000-0  11244-3 0  9735
2 31124 097.8113 301.2298 0051625 313.5852 164.4507 14.61935154346439
0 SAUDICOMSAT 5
1 31124U 07012H   13288.59063147  .00000648  00000-0  13609-3 0  9741
2 31124 097.8114 302.1790 0051571 310.3581 049.3124 14.61936948346574
0 SAUDICOMSAT 5
1 31124U 07012H   13289.61728041  .00000519  00000-0  11079-3 0  9753
2 31124 097.8114 303.1496 0051542 307.0270 052.6222 14.61938463346721
0 SAUDICOMSAT 5
1 31124U 07012H   13290.78081476  .00000512  00000-0  10944-3 0  9761
2 31124 097.8114 304.2495 0051535 303.2480 056.3789 14.61939664346896
0 SAUDICOMSAT 5
1 31124U 07012H   13292.01279165  .00000495  00000-0  10619-3 0  9773
2 31124 097.8114 305.4141 0051505 299.2424 060.3633 14.61940557347073
0 SAUDICOMSAT 5
1 31124U 07012H   13293.03943856  .00000549  00000-0  11664-3 0  9783
2 31124 097.8115 306.3845 0051505 295.9023 063.6875 14.61941645347223
0 SAUDICOMSAT 5
1 31124U 07012H   13294.47674347  .00000532  00000-0  11345-3 0  9797
2 31124 097.8115 307.7432 0051492 291.2327 068.3379 14.61944047347434
0 SAUDICOMSAT 5
1 31124U 07012H   13295.50338940  .00000557  00000-0  11838-3 0  9804
2 31124 097.8114 308.7139 0051458 287.9025 071.6570 14.61945195347588
